INTELSAT 10 (IS-10)     
1 26766U 01019A   25260.82637727 -.00000305  00000+0  00000+0 0  9992
2 26766   8.4198  62.0144 0003524 184.1783 196.7373  0.99080180 42885
INTELSAT 902 (IS-902)   
1 26900U 01039A   25259.43102468 -.00000300  00000+0  00000+0 0  9993
2 26900   5.4207  75.1205 0004141  97.6820 287.9077  1.00272465 87955
INTELSAT 904 (IS-904)   
1 27380U 02007A   25261.03447262 -.00000221  00000+0  00000+0 0  9997
2 27380   6.2354  72.4366 0002996 119.3801 150.3255  1.00269702 49033
DIRECTV 5 (TEMPO 1)     
1 27426U 02023A   25261.16919510 -.00000075  00000+0  00000+0 0  9997
2 27426   4.1782  78.7037 0003327 112.0936 117.3409  1.00271481 85398
INTELSAT 905 (IS-905)   
1 27438U 02027A   25261.12657374  .00000077  00000+0  00000+0 0  9998
2 27438   6.0654  73.0657 0002361 109.4804  83.1203  1.00272012 48636
GALAXY 3C (G-3C)        
1 27445U 02030A   25261.13498044 -.00000171  00000+0  00000+0 0  9994
2 27445   3.0384  81.4034 0002148  60.0183 169.6354  1.00271895 43762
INTELSAT 906 (IS-906)   
1 27513U 02041A   25261.05530793 -.00000004  00000+0  00000+0 0  9996
2 27513   5.1062  76.2708 0002819 129.2553 235.7859  1.00270606 84307
GALAXY 13 (HORIZONS-1)  
1 27954U 03044A   25261.12406041  .00000112  00000+0  00000+0 0  9994
2 27954   0.7094  87.7984 0002134  88.6424  75.5176  1.00272663 43841
INTELSAT 10-02          
1 28358U 04022A   25261.15361385 -.00000031  00000+0  00000+0 0  9995
2 28358   0.0251 255.1510 0000833 319.1417 197.3567  1.00272350 77827
XM-3 (RHYTHM)           
1 28626U 05008A   25260.99397319 -.00000220  00000+0  00000+0 0  9995
2 28626   0.0267  22.4276 0000210 184.0096  62.2509  1.00271214 39896
DIRECTV 8               
1 28659U 05019A   25261.16919510 -.00000019  00000+0  00000+0 0  9992
2 28659   0.0180 139.3908 0003101  52.9992 106.8063  1.00271470 74349
GALAXY 28 (G-28)        
1 28702U 05022A   25261.15808508 -.00000206  00000+0  00000+0 0  9996
2 28702   2.5933  82.3281 0001909  91.9270 151.2830  1.00271832 49258
GALAXY 16 (G-16)        
1 29236U 06023A   25260.92006434 -.00000148  00000+0  00000+0 0  9998
2 29236   0.0308 218.7074 0002657 325.2685  45.3474  1.00273125 70246
DIRECTV 9S              
1 29494U 06043A   25261.16364593 -.00000133  00000+0  00000+0 0  9990
2 29494   1.7141  84.2391 0002946  98.3171 132.4930  1.00271412 48654
GALAXY 17 (G-17)        
1 31307U 07016B   25260.99423319 -.00000226  00000+0  00000+0 0  9992
2 31307   2.2783  83.3599 0004672 142.7619  43.9849  1.00271929 67072
DIRECTV 10              
1 31862U 07032A   25261.16364593 -.00000124  00000+0  00000+0 0  9991
2 31862   0.0450 339.1709 0000698 270.0991  64.1827  1.00271355 42866
INTELSAT 11 (IS-11)     
1 32253U 07044B   25261.16919510  .00000050  00000+0  00000+0 0  9991
2 32253   2.8519  82.0141 0007908 121.8054  96.3910  0.99048042 65750
HORIZONS-2              
1 32388U 07063B   25261.22752986 -.00000273  00000+0  00000+0 0  9998
2 32388   1.8955  84.0004 0002246 136.3919 145.1218  1.00270386 65084
DIRECTV 11              
1 32729U 08013A   25261.15808508 -.00000146  00000+0  00000+0 0  9996
2 32729   0.0065 269.8754 0000192 309.5567  95.6208  1.00271648 42863
GALAXY 18 (G-18)        
1 32951U 08024A   25261.23308755  .00000005  00000+0  00000+0 0  9996
2 32951   0.0179 142.4921 0003127  46.9237 128.8868  1.00272445 43122
INTELSAT 25 (IS-25)     
1 33153U 08034A   25261.23930850 -.00000243  00000+0  00000+0 0  9994
2 33153   2.0024  83.6897 0005015 120.4905 207.8638  1.00274380 62960
GALAXY 19 (G-19)        
1 33376U 08045A   25260.92049769 -.00000160  00000+0  00000+0 0  9996
2 33376   0.0479 264.2435 0002801 282.1662  45.0777  1.00273327 62179
FM-5                    
1 35493U 09034A   25260.99397319 -.00000221  00000+0  00000+0 0  9999
2 35493   0.0378 266.3799 0000410 187.6680 174.7903  1.00270280 43915
INTELSAT 14 (IS-14)     
1 36097U 09064A   25261.14486049  .00000000  00000+0  00000+0 0  9994
2 36097   0.0227 138.5448 0002540  55.3091 170.6121  1.00268092 57878
INTELSAT 15 (IS-15)     
1 36106U 09067A   25260.96213490 -.00000206  00000+0  00000+0 0  9994
2 36106   0.0163 244.5784 0002364 307.9649 236.1120  1.00271740 38496
DIRECTV 12              
1 36131U 09075A   25261.16364593 -.00000124  00000+0  00000+0 0  9994
2 36131   0.0446 353.9201 0000291 188.1685 131.4382  1.00272061 43820
INTELSAT 16 (IS-16)     
1 36397U 10006A   25261.16553310 -.00000265  00000+0  00000+0 0  9997
2 36397   0.0288 271.8194 0002177 279.5510 149.3566  1.00272892 56923
XM-5                    
1 37185U 10053A   25260.91668433 -.00000044  00000+0  00000+0 0  9995
2 37185   0.0575 271.6333 0000240 164.6297 135.6284  1.00270074 54750
INTELSAT 17 (IS-17)     
1 37238U 10065B   25261.25461367 -.00000022  00000+0  00000+0 0  9998
2 37238   0.0144 194.9081 0002502 350.3958 329.7832  1.00271662 50529
INTELSAT 28 (IS-28)     
1 37392U 11016A   25261.14754716 -.00000245  00000+0  00000+0 0  9994
2 37392   1.0984  86.1812 0004291  99.4395 193.1229  1.00272047 50554
INTELSAT 18 (IS-18)     
1 37834U 11056A   25261.11816705  .00000000  00000+0  00000+0 0  9991
2 37834   0.0251 161.5468 0001824  13.5954  44.6801  1.00272743 51081
INTELSAT 22 (IS-22)     
1 38098U 12011A   25261.16711435 -.00000079  00000+0  00000+0 0  9992
2 38098   0.0247 239.0482 0001983 307.3788 303.1970  1.00271129  4468
INTELSAT 19 (IS-19)     
1 38356U 12030A   25261.11539370  .00000000  00000+0  00000+0 0  9994
2 38356   0.0208 156.2291 0002966  34.3135  14.2930  1.00270750 47726
INTELSAT 20 (IS-20)     
1 38740U 12043A   25261.01016838 -.00000045  00000+0  00000+0 0  9993
2 38740   0.0093 176.9155 0001602 348.5848 263.8479  1.00271249 48017
INTELSAT 21 (IS-21)     
1 38749U 12045A   25260.99960655 -.00000305  00000+0  00000+0 0  9994
2 38749   0.0190 243.8261 0001981 307.6676 107.5338  1.00270871 47793
INTELSAT 23 (IS-23)     
1 38867U 12057A   25261.22197473 -.00000305  00000+0  00000+0 0  9995
2 38867   0.0382 252.5768 0001557 358.4221 133.3198  1.00271336 47221
FM-6                    
1 39360U 13058A   25260.91668433 -.00000037  00000+0  00000+0 0  9992
2 39360   0.0229 133.9550 0002469  35.9622  41.0053  1.00269857 43334
INTELSAT 30 (IS-30)     
1 40271U 14062A   25261.13498044  .00000000  00000+0  00000+0 0  9994
2 40271   0.0225 133.9842 0001339 269.1526 267.6939  1.00268398  4050
DIRECTV 14              
1 40333U 14078B   25261.13411377  .00000000  00000+0  00000+0 0  9994
2 40333   0.0221 161.3017 0000414 105.6828  39.3767  1.00268552 39318
DIRECTV 15              
1 40663U 15026A   25261.16364593 -.00000123  00000+0  00000+0 0  9991
2 40663   0.0370  93.6278 0000194  52.0009 167.7515  1.00270931 37731
SKY MEXICO-1            
1 40664U 15026B   25260.99544653 -.00000255  00000+0  00000+0 0  9995
2 40664   0.0198 101.0324 0002171  91.9916  83.7398  1.00270885 37725
INTELSAT 34 (IS-34)     
1 40874U 15039A   25261.22197473  .00000000  00000+0  00000+0 0  9990
2 40874   0.0209 177.3094 0001573 189.9803  14.5032  1.00267013 36892
INTELSAT 31 (IS-31)     
1 41581U 16035A   25261.13498044 -.00000171  00000+0  00000+0 0  9991
2 41581   0.0181 220.6193 0001814   8.0402  82.1705  1.00270125 33953
INTELSAT 36 (IS-36)     
1 41747U 16053A   25261.01016838  .00000000  00000+0  00000+0 0  9999
2 41747   0.0197 134.8082 0001794 200.8432  93.6659  1.00269619 33219
INTELSAT 32E (IS-32E)   
1 41945U 17007B   25260.93110957 -.00000290  00000+0  00000+0 0  9998
2 41945   0.0215 103.7424 0000399 235.3572 310.0160  1.00269467 31495
INTELSAT 35E (IS-35E)   
1 42818U 17041A   25261.14694049 -.00000258  00000+0  00000+0 0  9993
2 42818   0.0173 238.1761 0002691 336.0044 161.5459  1.00272160 30083
INTELSAT 37E (IS-37E)   
1 42950U 17059A   25261.26647051  .00000000  00000+0  00000+0 0  9997
2 42950   0.0251 167.1026 0002935  23.4741 244.7895  1.00269584 29334
AZERSPACE 2 (IS-38)     
1 43632U 18074A   25261.16271390  .00000000  00000+0  00000+0 0  9991
2 43632   0.0268 154.2661 0001406  33.8155 272.9340  1.00271497 25721
HORIZONS-3E             
1 43633U 18074B   25261.19697456 -.00000051  00000+0  00000+0 0  9997
2 43633   0.0189 248.3402 0001838  41.4869 307.4591  1.00272336 25611
AT&T T-16               
1 44333U 19034A   25261.15808508 -.00000135  00000+0  00000+0 0  9993
2 44333   0.0276  99.0139 0000062  41.9418 172.4076  1.00269184 22901
INTELSAT 39 (IS-39)     
1 44476U 19049B   25261.25461367  .00000000  00000+0  00000+0 0  9996
2 44476   0.0253 164.7973 0000677 167.7173 178.5078  1.00269412 22405
GALAXY 30 (G-30)        
1 46114U 20056C   25261.23308755  .00000000  00000+0  00000+0 0  9996
2 46114   0.0235 177.0363 0002245   6.9063 132.3669  1.00269572 18564
GALAXY 33 (G-33)        
1 54026U 22128A   25260.98475647  .00000058  00000+0  00000+0 0  9998
2 54026   0.0174 227.4421 0001827 318.2862  32.9533  1.00274356 11017
GALAXY 34 (G-34)        
1 54027U 22128B   25260.98553647  .00000000  00000+0  00000+0 0  9993
2 54027   0.0196 176.5018 0001539 359.8453  46.6772  1.00271070 11180
GALAXY 31 (G-31)        
1 54243U 22153A   25261.23308755 -.00000007  00000+0  00000+0 0  9996
2 54243   0.0155 205.8219 0001584   4.7986 109.6951  1.00272307  4401
GALAXY 32 (G-32)        
1 54244U 22153B   25261.15808508  .00000000  00000+0  00000+0 0  9991
2 54244   0.0212 148.6438 0000219 144.7566  29.8398  1.00269771 10413
GALAXY 35 (G-35)        
1 54741U 22170A   25261.15808508 -.00000183  00000+0  00000+0 0  9995
2 54741   0.0198 222.3191 0001966 319.7368 139.0881  1.00271659 10169
GALAXY 36 (G-36)        
1 54742U 22170B   25260.92205769 -.00000206  00000+0  00000+0 0  9996
2 54742   0.0110 151.1266 0001745 350.1150  98.7935  1.00272436 10041
GALAXY 37 (G-37)        
1 57493U 23112A   25261.23308755  .00000000  00000+0  00000+0 0  9994
2 57493   0.0247 140.5524 0002137  55.4698 118.2921  1.00270903  7816
